0 IRIDIUM 33 DEB
1 33859U 97051AC  13282.51238220  .00001912  00000-0  70628-3 0  3767
2 33859 086.3481 128.4979 0043520 354.7298 067.0999 14.31448751242345
0 IRIDIUM 33 DEB
1 33859U 97051AC  13283.77635472  .00002319  00000-0  85799-3 0  3774
2 33859 086.3486 127.9646 0043549 350.6957 100.5502 14.31450181242526
0 IRIDIUM 33 DEB
1 33859U 97051AC  13286.15373878  .00002208  00000-0  81679-3 0  3790
2 33859 086.3480 126.9623 0043240 342.9506 111.7925 14.31458546242869
0 IRIDIUM 33 DEB
1 33859U 97051AC  13287.47594021  .00002586  00000-0  95774-3 0  3803
2 33859 086.3475 126.4050 0043081 338.6401 085.4589 14.31463202243051
0 IRIDIUM 33 DEB
1 33859U 97051AC  13288.51606155  .00003206  00000-0  11889-2 0  3816
2 33859 086.3472 125.9665 0042945 335.2340 045.5241 14.31471434243190
0 IRIDIUM 33 DEB
1 33859U 97051AC  13289.78822662  .00003003  00000-0  11131-2 0  3825
2 33859 086.3469 125.4299 0042783 331.0040 121.4809 14.31477469243384
0 IRIDIUM 33 DEB
1 33859U 97051AC  13290.98384508  .00002751  00000-0  10193-2 0  3838
2 33859 086.3469 124.9254 0042653 327.0431 162.9748 14.31482935243559
0 IRIDIUM 33 DEB
1 33859U 97051AC  13292.50036976  .00002850  00000-0  10562-2 0  3842
2 33859 086.3470 124.2862 0042496 322.0240 058.2560 14.31489878243762
0 IRIDIUM 33 DEB
1 33859U 97051AC  13293.84444647  .00003146  00000-0  11662-2 0  3850
2 33859 086.3474 123.7192 0042383 317.5131 144.9395 14.31495967243966
0 IRIDIUM 33 DEB
1 33859U 97051AC  13294.89270089  .00003452  00000-0  12804-2 0  3863
2 33859 086.3476 123.2771 0042289 313.9842 147.1391 14.31500227244115
0 IRIDIUM 33 DEB
1 33859U 97051AC  13296.08534295  .00003582  00000-0  13288-2 0  3870
2 33859 086.3477 122.7741 0042207 310.0110 173.4209 14.31507229244280
